{
    "links": {
        "self": "http://www.neowsapp.com/rest/v1/neo/3734102?api_key=iIulBulltgU6a56xZRHN4H3l9WmuAYTsLGpBGhQ2"
    },
    "id": "3734102",
    "neo_reference_id": "3734102",
    "name": "(2015 VU65)",
    "designation": "2015 VU65",
    "nasa_jpl_url": "http://ssd.jpl.nasa.gov/sbdb.cgi?sstr=3734102",
    "absolute_magnitude_h": 26.4,
    "estimated_diameter": {
        "kilometers": {
            "estimated_diameter_min": 0.0139493823,
            "estimated_diameter_max": 0.0311917671
        },
        "meters": {
            "estimated_diameter_min": 13.9493822934,
            "estimated_diameter_max": 31.1917670523
        },
        "miles": {
            "estimated_diameter_min": 0.0086677416,
            "estimated_diameter_max": 0.0193816595
        },
        "feet": {
            "estimated_diameter_min": 45.7656914036,
            "estimated_diameter_max": 102.3351970157
        }
    },
    "is_potentially_hazardous_asteroid": false,
    "close_approach_data": [
        {
            "close_approach_date": "2015-11-14",
            "close_approach_date_full": "2015-Nov-14 22:04",
            "epoch_date_close_approach": 1447538640000,
            "relative_velocity": {
                "kilometers_per_second": "13.3614805035",
                "kilometers_per_hour": "48101.3298126792",
                "miles_per_hour": "29888.2957383284"
            },
            "miss_distance": {
                "astronomical": "0.013433633",
                "lunar": "5.225683237",
                "kilometers": "2009642.88316171",
                "miles": "1248734.183023198"
            },
            "orbiting_body": "Earth"
        }
    ],
    "orbital_data": {
        "orbit_id": "12",
        "orbit_determination_date": "2017-08-10 06:19:27",
        "first_observation_date": "2015-11-09",
        "last_observation_date": "2015-11-15",
        "data_arc_in_days": 6,
        "observations_used": 64,
        "orbit_uncertainty": "8",
        "minimum_orbit_intersection": ".00244891",
        "jupiter_tisserand_invariant": "3.641",
        "epoch_osculation": "2457337.5",
        "eccentricity": ".5791027403431084",
        "semi_major_axis": "1.971809248417109",
        "inclination": "2.961435392672305",
        "ascending_node_longitude": "230.6437489718854",
        "orbital_period": "1011.336719318943",
        "perihelion_distance": ".8299291092248762",
        "perihelion_argument": "238.6676266137477",
        "aphelion_distance": "3.113689387609341",
        "perihelion_time": "2457380.587012144669",
        "mean_anomaly": "344.6625519712895",
        "mean_motion": ".3559645300354883",
        "equinox": "J2000",
        "orbit_class": {
            "orbit_class_type": "APO",
            "orbit_class_description": "Near-Earth asteroid orbits which cross the Earth’s orbit similar to that of 1862 Apollo",
            "orbit_class_range": "a (semi-major axis) > 1.0 AU; q (perihelion) < 1.017 AU"
        }
    },
    "is_sentry_object": false
}